start=new Date('2022-11-20T00:00:00.000Z').valueOf();
sats=[{"ARG_OF_PERICENTER":"67.2830","MEAN_MOTION":"15.08843509","RA_OF_ASC_NODE":"78.4933","CLASSIFICATION_TYPE":"U","MEAN_MOTION_DDOT":"0.0000000000000","COUNTRY_CODE":"US","MEAN_ANOMALY":"292.8273","MEAN_ELEMENT_THEORY":"SGP4","GP_ID":"218238755","RCS_SIZE":"LARGE","REV_AT_EPOCH":"1489","OBJECT_ID":"2022-101W","DECAY_DATE":null,"ELEMENT_SET_NO":"999","TLE_LINE2":"2 53547  53.2161  78.4933 0001052  67.2830 292.8273 15.08843509 14890","EPOCH":"2022-11-19T14:13:46.864128","APOAPSIS":"540.462","NORAD_CAT_ID":"53547","BSTAR":"0.00014490000000","FILE":"3663561","TLE_LINE1":"1 53547U 22101W   22323.59290352  .00002019  00000-0  14490-3 0  9990","LAUNCH_DATE":"2022-08-19","CENTER_NAME":"EARTH","MEAN_MOTION_DOT":"0.00002019","SITE":"AFETR","INCLINATION":"53.2161","REF_FRAME":"TEME","ECCENTRICITY":"0.00010520","OBJECT_TYPE":"PAYLOAD","TIME_SYSTEM":"UTC","PERIOD":"95.437","SEMIMAJOR_AXIS":"6917.870","EPHEMERIS_TYPE":"0","OBJECT_NAME":"STARLINK-4474","PERIAPSIS":"539.007"},{"MEAN_MOTION_DDOT":"0.0000000000000","CLASSIFICATION_TYPE":"U","RA_OF_ASC_NODE":"79.4464","ARG_OF_PERICENTER":"71.4882","MEAN_MOTION":"15.08844092","APOAPSIS":"540.569","EPOCH":"2022-11-19T09:06:26.404992","BSTAR":"0.00003398400000","NORAD_CAT_ID":"53548","TLE_LINE2":"2 53548  53.2186  79.4464 0001209  71.4882 288.6241 15.08844092 14195","ELEMENT_SET_NO":"999","REV_AT_EPOCH":"1419","OBJECT_ID":"2022-101X","DECAY_DATE":null,"GP_ID":"218207985","MEAN_ELEMENT_THEORY":"SGP4","RCS_SIZE":"LARGE","MEAN_ANOMALY":"288.6241","COUNTRY_CODE":"US","SITE":"AFETR","CENTER_NAME":"EARTH","MEAN_MOTION_DOT":"0.00000253","LAUNCH_DATE":"2022-08-19","TLE_LINE1":"1 53548U 22101X   22323.37947228  .00000253  00000-0  33984-4 0  9996","FILE":"3663316","PERIAPSIS":"538.897","OBJECT_NAME":"STARLINK-4513","EPHEMERIS_TYPE":"0","SEMIMAJOR_AXIS":"6917.868","PERIOD":"95.437","TIME_SYSTEM":"UTC","OBJECT_TYPE":"PAYLOAD","REF_FRAME":"TEME","ECCENTRICITY":"0.00012090","INCLINATION":"53.2186"},{"APOAPSIS":"540.789","EPOCH":"2022-11-19T14:03:10.954080","NORAD_CAT_ID":"53549","BSTAR":"0.00000857530000","TLE_LINE2":"2 53549  53.2167  78.5279 0001528  72.7718 287.3442 15.08844439 14885","ELEMENT_SET_NO":"999","REV_AT_EPOCH":"1488","OBJECT_ID":"2022-101Y","DECAY_DATE":null,"GP_ID":"218208809","MEAN_ELEMENT_THEORY":"SGP4","RCS_SIZE":"LARGE","MEAN_ANOMALY":"287.3442","COUNTRY_CODE":"US","MEAN_MOTION_DDOT":"0.0000000000000","CLASSIFICATION_TYPE":"U","RA_OF_ASC_NODE":"78.5279","ARG_OF_PERICENTER":"72.7718","MEAN_MOTION":"15.08844439","PERIAPSIS":"538.675","OBJECT_NAME":"STARLINK-4516","SEMIMAJOR_AXIS":"6917.867","EPHEMERIS_TYPE":"0","PERIOD":"95.437","TIME_SYSTEM":"UTC","OBJECT_TYPE":"PAYLOAD","REF_FRAME":"TEME","ECCENTRICITY":"0.00015280","INCLINATION":"53.2167","SITE":"AFETR","CENTER_NAME":"EARTH","MEAN_MOTION_DOT":"-0.00000152","LAUNCH_DATE":"2022-08-19","TLE_LINE1":"1 53549U 22101Y   22323.58554345 -.00000152  00000-0  85753-5 0  9995","FILE":"3663316"},{"PERIOD":"95.437","EPHEMERIS_TYPE":"0","SEMIMAJOR_AXIS":"6917.871","OBJECT_NAME":"STARLINK-4518","PERIAPSIS":"538.641","INCLINATION":"53.2200","REF_FRAME":"TEME","ECCENTRICITY":"0.00015820","OBJECT_TYPE":"PAYLOAD","TIME_SYSTEM":"UTC","CENTER_NAME":"EARTH","MEAN_MOTION_DOT":"0.00000709","SITE":"AFETR","FILE":"3663316","TLE_LINE1":"1 53550U 22101Z   22323.04459260  .00000709  00000-0  62656-4 0  9991","LAUNCH_DATE":"2022-08-19","ELEMENT_SET_NO":"999","TLE_LINE2":"2 53550  53.2200  80.9499 0001582  57.2642 302.8503 15.08843162 14805","EPOCH":"2022-11-19T01:04:12.800640","APOAPSIS":"540.830","NORAD_CAT_ID":"53550","BSTAR":"0.00006265600000","COUNTRY_CODE":"US","MEAN_ANOMALY":"302.8503","MEAN_ELEMENT_THEORY":"SGP4","GP_ID":"218208973","RCS_SIZE":"LARGE","REV_AT_EPOCH":"1480","DECAY_DATE":null,"OBJECT_ID":"2022-101Z","MEAN_MOTION_DDOT":"0.0000000000000","ARG_OF_PERICENTER":"57.2642","MEAN_MOTION":"15.08843162","RA_OF_ASC_NODE":"80.9499","CLASSIFICATION_TYPE":"U"},{"ELEMENT_SET_NO":"999","TLE_LINE2":"2 53551  53.2163  78.5454 0001377  60.5437 299.5692 15.08840715 14889","APOAPSIS":"540.696","EPOCH":"2022-11-19T13:57:54.082944","BSTAR":"0.00002818000000","NORAD_CAT_ID":"53551","COUNTRY_CODE":"US","MEAN_ANOMALY":"299.5692","GP_ID":"218239098","MEAN_ELEMENT_THEORY":"SGP4","RCS_SIZE":"LARGE","REV_AT_EPOCH":"1488","OBJECT_ID":"2022-101AA","DECAY_DATE":null,"MEAN_MOTION_DDOT":"0.0000000000000","ARG_OF_PERICENTER":"60.5437","MEAN_MOTION":"15.08840715","RA_OF_ASC_NODE":"78.5454","CLASSIFICATION_TYPE":"U","PERIOD":"95.438","EPHEMERIS_TYPE":"0","SEMIMAJOR_AXIS":"6917.878","OBJECT_NAME":"STARLINK-4514","PERIAPSIS":"538.791","INCLINATION":"53.2163","REF_FRAME":"TEME","ECCENTRICITY":"0.00013770","OBJECT_TYPE":"PAYLOAD","TIME_SYSTEM":"UTC","MEAN_MOTION_DOT":"0.00000161","CENTER_NAME":"EARTH","SITE":"AFETR","FILE":"3663561","TLE_LINE1":"1 53551U 22101AA  22323.58187596  .00000161  00000-0  28180-4 0  9997","LAUNCH_DATE":"2022-08-19"},{"EPOCH":"2022-11-19T19:58:14.709216","APOAPSIS":"540.860","BSTAR":"0.00006562400000","NORAD_CAT_ID":"53552","TLE_LINE2":"2 53552  53.2207  77.4125 0001596  57.8580 302.2567 15.08836694 14911","ELEMENT_SET_NO":"999","REV_AT_EPOCH":"1491","OBJECT_ID":"2022-101AB","DECAY_DATE":null,"GP_ID":"218239571","MEAN_ELEMENT_THEORY":"SGP4","RCS_SIZE":"LARGE","MEAN_ANOMALY":"302.2567","COUNTRY_CODE":"US","MEAN_MOTION_DDOT":"0.0000000000000","CLASSIFICATION_TYPE":"U","RA_OF_ASC_NODE":"77.4125","ARG_OF_PERICENTER":"57.8580","MEAN_MOTION":"15.08836694","PERIAPSIS":"538.651","OBJECT_NAME":"STARLINK-4495","SEMIMAJOR_AXIS":"6917.890","EPHEMERIS_TYPE":"0","PERIOD":"95.438","TIME_SYSTEM":"UTC","OBJECT_TYPE":"PAYLOAD","REF_FRAME":"TEME","ECCENTRICITY":"0.00015960","INCLINATION":"53.2207","SITE":"AFETR","MEAN_MOTION_DOT":"0.00000756","CENTER_NAME":"EARTH","LAUNCH_DATE":"2022-08-19","TLE_LINE1":"1 53552U 22101AB  22323.83211469  .00000756  00000-0  65624-4 0  9997","FILE":"3663561"},{"COUNTRY_CODE":"US","MEAN_ANOMALY":"289.8048","RCS_SIZE":"LARGE","GP_ID":"218239415","MEAN_ELEMENT_THEORY":"SGP4","OBJECT_ID":"2022-101AC","DECAY_DATE":null,"REV_AT_EPOCH":"1486","ELEMENT_SET_NO":"999","TLE_LINE2":"2 53553  53.2188  79.1739 0001523  70.3109 289.8048 15.08838219 14860","NORAD_CAT_ID":"53553","BSTAR":"0.00000306480000","APOAPSIS":"540.804","EPOCH":"2022-11-19T10:32:36.842784","MEAN_MOTION":"15.08838219","ARG_OF_PERICENTER":"70.3109","RA_OF_ASC_NODE":"79.1739","CLASSIFICATION_TYPE":"U","MEAN_MOTION_DDOT":"0.0000000000000","INCLINATION":"53.2188","ECCENTRICITY":"0.00015230","REF_FRAME":"TEME","OBJECT_TYPE":"PAYLOAD","TIME_SYSTEM":"UTC","PERIOD":"95.438","EPHEMERIS_TYPE":"0","SEMIMAJOR_AXIS":"6917.886","OBJECT_NAME":"STARLINK-4501","PERIAPSIS":"538.697","FILE":"3663561","TLE_LINE1":"1 53553U 22101AC  22323.43931531 -.00000239  00000-0  30648-5 0  9999","LAUNCH_DATE":"2022-08-19","CENTER_NAME":"EARTH","MEAN_MOTION_DOT":"-0.00000239","SITE":"AFETR"},{"PERIAPSIS":"538.657","OBJECT_NAME":"STARLINK-4506","EPHEMERIS_TYPE":"0","SEMIMAJOR_AXIS":"6917.889","PERIOD":"95.438","TIME_SYSTEM":"UTC","OBJECT_TYPE":"PAYLOAD","ECCENTRICITY":"0.00015860","REF_FRAME":"TEME","INCLINATION":"53.2212","SITE":"AFETR","CENTER_NAME":"EARTH","MEAN_MOTION_DOT":"0.00000285","LAUNCH_DATE":"2022-08-19","TLE_LINE1":"1 53554U 22101AD  22323.75851146  .00000285  00000-0  36008-4 0  9993","FILE":"3663561","NORAD_CAT_ID":"53554","BSTAR":"0.00003600800000","APOAPSIS":"540.851","EPOCH":"2022-11-19T18:12:15.390144","TLE_LINE2":"2 53554  53.2212  77.7469 0001586  60.3681 299.7469 15.08837138 14255","ELEMENT_SET_NO":"999","OBJECT_ID":"2022-101AD","DECAY_DATE":null,"REV_AT_EPOCH":"1425","RCS_SIZE":"LARGE","GP_ID":"218238934","MEAN_ELEMENT_THEORY":"SGP4","MEAN_ANOMALY":"299.7469","COUNTRY_CODE":"US","MEAN_MOTION_DDOT":"0.0000000000000","CLASSIFICATION_TYPE":"U","RA_OF_ASC_NODE":"77.7469","MEAN_MOTION":"15.08837138","ARG_OF_PERICENTER":"60.3681"},{"COUNTRY_CODE":"US","MEAN_ANOMALY":"291.8852","RCS_SIZE":"LARGE","MEAN_ELEMENT_THEORY":"SGP4","GP_ID":"218238756","OBJECT_ID":"2022-101AE","DECAY_DATE":null,"REV_AT_EPOCH":"1486","ELEMENT_SET_NO":"999","TLE_LINE2":"2 53555  53.2189  79.1783 0002368  68.2393 291.8852 15.08855660 14866","NORAD_CAT_ID":"53555","BSTAR":"-0.00019891000000","APOAPSIS":"541.336","EPOCH":"2022-11-19T10:31:13.394208","MEAN_MOTION":"15.08855660","ARG_OF_PERICENTER":"68.2393","RA_OF_ASC_NODE":"79.1783","CLASSIFICATION_TYPE":"U","MEAN_MOTION_DDOT":"0.0000000000000","INCLINATION":"53.2189","ECCENTRICITY":"0.00023680","REF_FRAME":"TEME","OBJECT_TYPE":"PAYLOAD","TIME_SYSTEM":"UTC","PERIOD":"95.437","EPHEMERIS_TYPE":"0","SEMIMAJOR_AXIS":"6917.833","OBJECT_NAME":"STARLINK-4504","PERIAPSIS":"538.059","FILE":"3663561","TLE_LINE1":"1 53555U 22101AE  22323.43834947 -.00003454  00000-0 -19891-3 0  9992","LAUNCH_DATE":"2022-08-19","MEAN_MOTION_DOT":"-0.00003454","CENTER_NAME":"EARTH","SITE":"AFETR"},{"MEAN_MOTION_DDOT":"0.0000000000000","RA_OF_ASC_NODE":"78.3795","CLASSIFICATION_TYPE":"U","MEAN_MOTION":"15.08837077","ARG_OF_PERICENTER":"54.7523","TLE_LINE2":"2 53556  53.2218  78.3795 0001498  54.7523 305.3610 15.08837077 14238","BSTAR":"0.00011577000000","NORAD_CAT_ID":"53556","EPOCH":"2022-11-19T14:50:53.382624","APOAPSIS":"540.791","ELEMENT_SET_NO":"999","RCS_SIZE":"LARGE","MEAN_ELEMENT_THEORY":"SGP4","GP_ID":"218239254","OBJECT_ID":"2022-101AF","DECAY_DATE":null,"REV_AT_EPOCH":"1423","COUNTRY_CODE":"US","MEAN_ANOMALY":"305.3610","SITE":"AFETR","CENTER_NAME":"EARTH","MEAN_MOTION_DOT":"0.00001555","LAUNCH_DATE":"2022-08-19","FILE":"3663561","TLE_LINE1":"1 53556U 22101AF  22323.61867341  .00001555  00000-0  11577-3 0  9998","OBJECT_NAME":"STARLINK-4505","PERIAPSIS":"538.718","PERIOD":"95.438","SEMIMAJOR_AXIS":"6917.889","EPHEMERIS_TYPE":"0","OBJECT_TYPE":"PAYLOAD","TIME_SYSTEM":"UTC","INCLINATION":"53.2218","ECCENTRICITY":"0.00014980","REF_FRAME":"TEME"}];
